NORAD_CAT_ID,OBJECT_NAME,OBJECT_TYPE,EPOCH,MEAN_MOTION,ECCENTRICITY,INCLINATION,RA_OF_ASC_NODE,ARG_OF_PERICENTER,MEAN_ANOMALY,BSTAR,MEAN_MOTION_DOT,MEAN_MOTION_DDOT,TLE_LINE0,TLE_LINE1,TLE_LINE2,SEMIMAJOR_AXIS,PERIOD,APOGEE,PERIGEE,DECAYED
51957.0,STARLINK-3694,PAYLOAD,2024-04-27 15:37:24,15.04736162,0.0001493,53.0543,212.1192,90.0266,270.0893,-0.00046546,-6.9e-05,0.0,0 STARLINK-3694,1 51957U 22025B   24118.65097682 -.00006900  00000-0 -46546-3 0  9992,2 51957  53.0543 212.1192 0001493  90.0266 270.0893 15.04736162118214,6930.453,95.698,553.352,551.283,0.0
51957.0,STARLINK-3694,PAYLOAD,2024-04-28 12:20:45,15.04762907,0.0001127,53.0506,208.255,86.463,273.6487,-0.00019847,-3.105e-05,0.0,0 STARLINK-3694,1 51957U 22025B   24119.51441630 -.00003105  00000-0 -19847-3 0  9992,2 51957  53.0506 208.2550 0001127  86.4630 273.6487 15.04762907119456,6930.371,95.696,553.017,551.455,0.0
51957.0,STARLINK-3694,PAYLOAD,2024-04-28 15:32:02,15.04765959,0.0001612,53.0521,207.6572,96.3481,263.7691,-8.2737e-05,-1.456e-05,0.0,0 STARLINK-3694,1 51957U 22025B   24119.64725367 -.00001456  00000-0 -82737-4 0  9994,2 51957  53.0521 207.6572 0001612  96.3481 263.7691 15.04765959118369,6930.361,95.696,553.343,551.109,0.0
51957.0,STARLINK-3694,PAYLOAD,2024-04-29 12:15:23,15.04779997,0.0001228,53.0528,203.7912,91.8617,268.2512,0.00032077,4.3e-05,0.0,0 STARLINK-3694,1 51957U 22025B   24120.51069116  .00004300  00000-0  32077-3 0  9995,2 51957  53.0528 203.7912 0001228  91.8617 268.2512 15.04779997119602,6930.318,95.695,553.034,551.332,0.0
51957.0,STARLINK-3694,PAYLOAD,2024-04-30 05:47:28,15.04777463,0.0001379,53.052,200.5191,96.3956,263.7189,0.00054764,7.54e-05,0.0,0 STARLINK-3694,1 51957U 22025B   24121.24129867  .00007540  00000-0  54764-3 0  9992,2 51957  53.0520 200.5191 0001379  96.3956 263.7189 15.04777463119719,6930.326,95.695,553.147,551.235,0.0
51957.0,STARLINK-3694,PAYLOAD,2024-04-30 12:10:01,15.04788329,0.0001427,53.0531,199.3351,87.522,272.5932,0.00042572,5.8e-05,0.0,0 STARLINK-3694,1 51957U 22025B   24121.50696677  .00005800  00000-0  42572-3 0  9990,2 51957  53.0531 199.3351 0001427  87.5220 272.5932 15.04788329118642,6930.293,95.695,553.146,551.169,0.0
51957.0,STARLINK-3694,PAYLOAD,2024-04-30 21:43:53,15.04784548,0.0001192,53.0519,197.5458,74.1479,285.9641,0.00010482,1.218e-05,0.0,0 STARLINK-3694,1 51957U 22025B   24121.90547531  .00001218  00000-0  10482-3 0  9992,2 51957  53.0519 197.5458 0001192  74.1479 285.9641 15.04784548118704,6930.304,95.695,552.995,551.343,0.0
51957.0,STARLINK-3694,PAYLOAD,2024-05-01 05:42:06,15.04775203,0.0001716,53.0537,196.0627,89.1541,270.9644,-0.00015512,-2.488e-05,0.0,0 STARLINK-3694,1 51957U 22025B   24122.23757220 -.00002488  00000-0 -15512-3 0  9998,2 51957  53.0537 196.0627 0001716  89.1541 270.9644 15.04775203119867,6930.333,95.695,553.387,551.009,0.0
51957.0,STARLINK-3694,PAYLOAD,2024-05-01 12:04:40,15.04776864,0.0001805,53.0529,194.8684,86.3676,273.7519,-7.2938e-05,-1.317e-05,0.0,0 STARLINK-3694,1 51957U 22025B   24122.50324622 -.00001317  00000-0 -72938-4 0  9990,2 51957  53.0529 194.8684 0001805  86.3676 273.7519 15.04776864118791,6930.328,95.695,553.444,550.942,0.0
51957.0,STARLINK-3694,PAYLOAD,2024-05-01 21:38:32,15.04766087,0.0001494,53.0531,193.0891,92.1832,267.9328,-0.00022208,-3.441e-05,0.0,0 STARLINK-3694,1 51957U 22025B   24122.90176346 -.00003441  00000-0 -22208-3 0  9996,2 51957  53.0531 193.0891 0001494  92.1832 267.9328 15.04766087118854,6930.361,95.696,553.261,551.19,0.0
51957.0,STARLINK-3694,PAYLOAD,2024-05-02 11:59:20,15.0476446,0.0001382,53.0535,190.4111,90.6163,269.4984,-0.00010309,-1.746e-05,0.0,0 STARLINK-3694,1 51957U 22025B   24123.49954137 -.00001746  00000-0 -10309-3 0  9998,2 51957  53.0535 190.4111 0001382  90.6163 269.4984 15.04764460120053,6930.366,95.696,553.189,551.273,0.0
51957.0,STARLINK-3694,PAYLOAD,2024-05-02 13:34:58,15.04764847,0.000135,53.0529,190.1128,87.6878,272.4265,-0.00010223,-1.734e-05,0.0,0 STARLINK-3694,1 51957U 22025B   24123.56595978 -.00001734  00000-0 -10223-3 0  9992,2 51957  53.0529 190.1128 0001350  87.6878 272.4265 15.04764847118956,6930.365,95.696,553.165,551.294,0.0
51957.0,STARLINK-3694,PAYLOAD,2024-05-03 13:29:36,15.0477895,0.0001465,53.0528,185.6505,87.6974,272.4182,0.00040325,5.478e-05,0.0,0 STARLINK-3694,1 51957U 22025B   24124.56223135  .00005478  00000-0  40325-3 0  9999,2 51957  53.0528 185.6505 0001465  87.6974 272.4182 15.04778950120217,6930.321,95.695,553.202,551.171,0.0
51957.0,STARLINK-3694,PAYLOAD,2024-05-04 03:50:25,15.04759317,0.0001431,53.0529,182.9735,91.6949,268.4203,0.00013582,1.659e-05,0.0,0 STARLINK-3694,1 51957U 22025B   24125.16001348  .00001659  00000-0  13582-3 0  9998,2 51957  53.0529 182.9735 0001431  91.6949 268.4203 15.04759317120308,6930.382,95.696,553.238,551.255,0.0
51957.0,STARLINK-3694,PAYLOAD,2024-05-05 13:18:55,15.04772795,0.0001371,53.0527,176.7263,99.4662,260.6481,0.00032963,4.426e-05,0.0,0 STARLINK-3694,1 51957U 22025B   24126.55480963  .00004426  00000-0  32963-3 0  9995,2 51957  53.0527 176.7263 0001371  99.4662 260.6481 15.04772795120514,6930.34,95.696,553.155,551.255,0.0
51957.0,STARLINK-3694,PAYLOAD,2024-05-06 10:02:16,15.04795245,0.0001308,53.0518,172.861,95.8451,264.2686,0.00094319,0.00013204,0.0,0 STARLINK-3694,1 51957U 22025B   24127.41824729  .00013204  00000-0  94319-3 0  9990,2 51957  53.0518 172.8610 0001308  95.8451 264.2686 15.04795245119535,6930.271,95.694,553.043,551.23,0.0
51957.0,STARLINK-3694,PAYLOAD,2024-05-06 19:36:07,15.04789213,0.0001293,53.0512,171.077,93.7318,266.3818,0.00047716,6.535e-05,0.0,0 STARLINK-3694,1 51957U 22025B   24127.81675644  .00006535  00000-0  47716-3 0  9992,2 51957  53.0512 171.0770 0001293  93.7318 266.3818 15.04789213120708,6930.29,95.694,553.051,551.259,0.0
51957.0,STARLINK-3694,PAYLOAD,2024-05-07 09:56:55,15.04774548,0.000141,53.0527,168.4009,96.5798,263.5351,8.4022e-05,9.21e-06,0.0,0 STARLINK-3694,1 51957U 22025B   24128.41452726  .00000921  00000-0  84022-4 0  9998,2 51957  53.0527 168.4009 0001410  96.5798 263.5351 15.04774548120798,6930.335,95.695,553.177,551.223,0.0
51957.0,STARLINK-3694,PAYLOAD,2024-05-08 11:27:12,15.04773005,0.0001371,53.053,163.6426,100.9288,259.1855,-2.56e-05,-6.42e-06,0.0,0 STARLINK-3694,1 51957U 22025B   24129.47722940 -.00000642  00000-0 -25600-4 0  9992,2 51957  53.0530 163.6426 0001371 100.9288 259.1855 15.04773005120957,6930.34,95.695,553.155,551.254,0.0
51957.0,STARLINK-3694,PAYLOAD,2024-05-08 19:25:25,15.04771961,0.0001277,53.0523,162.1542,90.7255,269.388,-5.4519e-05,-1.054e-05,0.0,0 STARLINK-3694,1 51957U 22025B   24129.80932303 -.00001054  00000-0 -54519-4 0  9994,2 51957  53.0523 162.1542 0001277  90.7255 269.3880 15.04771961119898,6930.343,95.696,553.093,551.323,0.0
51957.0,STARLINK-3694,PAYLOAD,2024-05-09 11:21:51,15.04771037,0.0001376,53.053,159.1803,84.5035,275.611,0.00011141,1.312e-05,0.0,0 STARLINK-3694,1 51957U 22025B   24130.47350895  .00001312  00000-0  11141-3 0  9997,2 51957  53.0530 159.1803 0001376  84.5035 275.6110 15.04771037119990,6930.346,95.696,553.164,551.257,0.0
51957.0,STARLINK-3694,PAYLOAD,2024-05-10 11:16:29,15.0477426,0.0001342,53.0529,154.7156,90.8822,269.232,0.00014127,1.738e-05,0.0,0 STARLINK-3694,1 51957U 22025B   24131.46978823  .00001738  00000-0  14127-3 0  9993,2 51957  53.0529 154.7156 0001342  90.8822 269.2320 15.04774260121252,6930.336,95.695,553.131,551.271,0.0
51957.0,STARLINK-3694,PAYLOAD,2024-05-11 06:24:12,15.04781625,0.0001774,53.053,151.1495,110.0441,250.0739,0.00024986,3.288e-05,0.0,0 STARLINK-3694,1 51957U 22025B   24132.26680857  .00003288  00000-0  24986-3 0  9995,2 51957  53.0530 151.1495 0001774 110.0441 250.0739 15.04781625120267,6930.313,95.695,553.408,550.949,0.0
51957.0,STARLINK-3694,PAYLOAD,2024-05-12 04:43:13,15.04749297,0.0001462,53.0528,146.9811,94.9461,265.1694,-0.00042059,-6.264e-05,0.0,0 STARLINK-3694,1 51957U 22025B   24133.19668095 -.00006264  00000-0 -42059-3 0  9998,2 51957  53.0528 146.9811 0001462  94.9461 265.1694 15.04749297121519,6930.412,95.697,553.291,551.264,0.0
51957.0,STARLINK-3694,PAYLOAD,2024-05-12 06:18:51,15.04750523,0.0001588,53.0531,146.6837,100.224,259.8927,-0.00038332,-5.735e-05,0.0,0 STARLINK-3694,1 51957U 22025B   24133.26309974 -.00005735  00000-0 -38332-3 0  9995,2 51957  53.0531 146.6837 0001588 100.2240 259.8927 15.04750523120414,6930.409,95.697,553.374,551.173,0.0
51957.0,STARLINK-3694,PAYLOAD,2024-05-12 17:28:22,15.04747232,0.0001502,53.0534,144.6027,80.1119,280.0039,-0.00028699,-4.363e-05,0.0,0 STARLINK-3694,1 51957U 22025B   24133.72803848 -.00004363  00000-0 -28699-3 0  9996,2 51957  53.0534 144.6027 0001502  80.1119 280.0039 15.04747232120483,6930.419,95.697,553.325,551.243,0.0
51957.0,STARLINK-3694,PAYLOAD,2024-05-13 11:00:27,15.04747877,0.000161,53.0525,141.3336,89.9481,270.1692,-0.00019978,-3.122e-05,0.0,0 STARLINK-3694,1 51957U 22025B   24134.45865524 -.00003122  00000-0 -19978-3 0  9998,2 51957  53.0525 141.3336 0001610  89.9481 270.1692 15.04747877120591,6930.417,95.697,553.398,551.166,0.0
51957.0,STARLINK-3694,PAYLOAD,2024-05-13 17:23:02,15.04753,0.0001596,53.0536,140.1454,81.4192,278.6977,0.00015958,1.998e-05,0.0,0 STARLINK-3694,1 51957U 22025B   24134.72433351  .00001998  00000-0  15958-3 0  9998,2 51957  53.0536 140.1454 0001596  81.4192 278.6977 15.04753000120639,6930.401,95.697,553.372,551.16,0.0
51957.0,STARLINK-3694,PAYLOAD,2024-05-14 04:32:32,15.04763274,0.0001491,53.053,138.0627,76.0431,284.0723,0.00051021,7.003e-05,0.0,0 STARLINK-3694,1 51957U 22025B   24135.18926334  .00007003  00000-0  51021-3 0  9991,2 51957  53.0530 138.0627 0001491  76.0431 284.0723 15.04763274121816,6930.369,95.696,553.268,551.201,0.0
51957.0,STARLINK-3694,PAYLOAD,2024-05-14 07:43:49,15.04767916,0.0001508,53.053,137.468,76.5426,283.573,0.00061193,8.457e-05,0.0,0 STARLINK-3694,1 51957U 22025B   24135.32210137  .00008457  00000-0  61193-3 0  9999,2 51957  53.0530 137.4680 0001508  76.5426 283.5730 15.04767916120724,6930.355,95.696,553.265,551.175,0.0
